STARLINK-4464
1 53669U 22105X   26092.83335647 -.00012167  00000+0 -71244-3 0  9996
2 53669  97.6023 334.0035 0001796  76.4687  61.4377 15.11703295  5756
